{
  "norad_id": 25867,
  "name": "CXO",
  "history": [
    {
      "epoch": "2026-03-31T01:01:00.181344",
      "apogee_km": 138734.96329257466,
      "perigee_km": 10076.062626114177,
      "latitude_deg": -24.311294412416434,
      "longitude_deg": -61.23313184012659,
      "semi_major_axis_km": 80783.64995934442,
      "eccentricity": 0.7963177,
      "inclination_deg": 54.9448,
      "raan_deg": 118.9145,
      "arg_perigee_deg": 310.7103,
      "mean_anomaly_deg": 0.1107,
      "mean_motion_rev_day": 0.37810947
    }
  ]
}